STARLINK-1199
1 25201C 20012Z   21325.12064354  .00008187  00000-0  54859-3 0  3256
2 25201  53.0543 232.6991 0001800  68.0995  47.7886 15.06386858    13
